NORAD_CAT_ID,OBJECT_NAME,OBJECT_TYPE,EPOCH,MEAN_MOTION,ECCENTRICITY,INCLINATION,RA_OF_ASC_NODE,ARG_OF_PERICENTER,MEAN_ANOMALY,BSTAR,MEAN_MOTION_DOT,MEAN_MOTION_DDOT,TLE_LINE0,TLE_LINE1,TLE_LINE2,SEMIMAJOR_AXIS,PERIOD,APOGEE,PERIGEE,DECAYED
56798.0,STARLINK-6068,PAYLOAD,2023-08-03 01:59:34,15.69930137,0.000376,69.9977,233.8919,257.9054,102.1721,1.5643e-05,1.669e-05,0.0,0 STARLINK-6068,1 56798U 23078AH  23215.08303449  .00001669  00000-0  15643-4 0  9994,2 56798  69.9977 233.8919 0003760 257.9054 102.1721 15.69930137 10321,6737.234,91.724,361.632,356.566,0.0
56798.0,STARLINK-6068,PAYLOAD,2023-08-03 09:38:20,15.69922007,0.0003586,69.9988,232.9978,259.2694,100.8098,2.4191e-05,2.697e-05,0.0,0 STARLINK-6068,1 56798U 23078AH  23215.40162412  .00002697  00000-0  24191-4 0  9993,2 56798  69.9988 232.9978 0003586 259.2694 100.8098 15.69922007 10373,6737.257,91.724,361.538,356.706,0.0
56798.0,STARLINK-6068,PAYLOAD,2023-08-03 12:41:51,15.6991208,0.0003127,69.9981,232.6366,266.8286,93.2551,2.394e-06,7.5e-07,0.0,0 STARLINK-6068,1 56798U 23078AH  23215.52906329  .00000075  00000-0  23940-5 0  9999,2 56798  69.9981 232.6366 0003127 266.8286  93.2551 15.69912080 10397,6737.286,91.725,361.257,357.044,0.0
56798.0,STARLINK-6068,PAYLOAD,2023-08-04 02:27:36,15.69930507,0.0003498,69.9968,231.024,270.5831,89.4964,1.304e-05,1.356e-05,0.0,0 STARLINK-6068,1 56798U 23078AH  23216.10250507  .00001356  00000-0  13040-4 0  9996,2 56798  69.9968 231.0240 0003498 270.5831  89.4964 15.69930507 10484,6737.233,91.724,361.455,356.741,0.0
56798.0,STARLINK-6068,PAYLOAD,2023-08-04 13:09:53,15.69915427,0.0002367,70.0001,229.7748,295.5809,64.5141,-2.913e-06,-5.62e-06,0.0,0 STARLINK-6068,1 56798U 23078AH  23216.54853333 -.00000562  00000-0 -29130-5 0  9998,2 56798  70.0001 229.7748 0002367 295.5809  64.5141 15.69915427 10551,6737.276,91.725,360.736,357.546,0.0
56798.0,STARLINK-6068,PAYLOAD,2023-08-05 02:55:38,15.69927223,0.0003483,70.0002,228.1605,273.5493,86.5304,2.448e-05,2.732e-05,0.0,0 STARLINK-6068,1 56798U 23078AH  23217.12197326  .00002732  00000-0  24480-4 0  9997,2 56798  70.0002 228.1605 0003483 273.5493  86.5304 15.69927223 10644,6737.242,91.724,361.454,356.761,0.0
56798.0,STARLINK-6068,PAYLOAD,2023-08-05 10:34:24,15.69916866,0.0003176,69.9997,227.2639,267.9955,92.0877,-1.9713e-06,-4.5e-06,0.0,0 STARLINK-6068,1 56798U 23078AH  23217.44056088 -.00000450  00000-0 -19713-5 0  9992,2 56798  69.9997 227.2639 0003176 267.9955  92.0877 15.69916866 10693,6737.272,91.725,361.277,356.997,0.0
56798.0,STARLINK-6068,PAYLOAD,2023-08-06 12:34:12,15.69923338,0.0002562,70.0004,224.2203,285.6981,74.3932,3.3216e-05,3.783e-05,0.0,0 STARLINK-6068,1 56798U 23078AH  23218.52375027  .00003783  00000-0  33216-4 0  9992,2 56798  70.0004 224.2203 0002562 285.6981  74.3932 15.69923338 10869,6737.253,91.724,360.844,357.392,0.0
56798.0,STARLINK-6068,PAYLOAD,2023-08-06 23:16:27,15.69931607,0.0003284,69.9995,222.9634,264.9227,95.1594,2.5575e-05,2.864e-05,0.0,0 STARLINK-6068,1 56798U 23078AH  23218.96975803  .00002864  00000-0  25575-4 0  9996,2 56798  69.9995 222.9634 0003284 264.9227  95.1594 15.69931607 10934,6737.23,91.724,361.307,356.882,0.0
56798.0,STARLINK-6068,PAYLOAD,2023-08-07 09:58:44,15.69905224,0.0002426,70.0005,221.7126,261.7429,98.3491,-2.6418e-05,-3.384e-05,0.0,0 STARLINK-6068,1 56798U 23078AH  23219.41578907 -.00003384  00000-0 -26418-4 0  9998,2 56798  70.0005 221.7126 0002426 261.7429  98.3491 15.69905224 11004,6737.305,91.725,360.805,357.536,0.0
56798.0,STARLINK-6068,PAYLOAD,2023-08-07 17:37:28,15.69934511,0.0003623,69.9999,220.8153,263.9439,96.1344,4.5117e-05,5.218e-05,0.0,0 STARLINK-6068,1 56798U 23078AH  23219.73435616  .00005218  00000-0  45117-4 0  9995,2 56798  69.9999 220.8153 0003623 263.9439  96.1344 15.69934511 11057,6737.221,91.724,361.527,356.645,0.0
56798.0,STARLINK-6068,PAYLOAD,2023-08-08 02:48:00,15.69916592,0.0003081,70.0003,219.7418,256.9913,103.0939,3.2175e-05,3.657e-05,0.0,0 STARLINK-6068,1 56798U 23078AH  23220.11666805  .00003657  00000-0  32175-4 0  9990,2 56798  70.0003 219.7418 0003081 256.9913 103.0939 15.69916592 11118,6737.273,91.725,361.213,357.062,0.0
56798.0,STARLINK-6068,PAYLOAD,2023-08-08 11:58:30,15.69925542,0.0003144,69.9991,218.6651,259.9607,100.1234,3.556e-05,4.065e-05,0.0,0 STARLINK-6068,1 56798U 23078AH  23220.49896420  .00004065  00000-0  35560-4 0  9994,2 56798  69.9991 218.6651 0003144 259.9607 100.1234 15.69925542 11178,6737.247,91.724,361.23,356.994,0.0
56798.0,STARLINK-6068,PAYLOAD,2023-08-09 17:01:47,15.69922362,0.0002991,69.9989,215.2608,265.7051,94.3803,1.7338e-05,1.872e-05,0.0,0 STARLINK-6068,1 56798U 23078AH  23221.70958260  .00001872  00000-0  17338-4 0  9996,2 56798  69.9989 215.2608 0002991 265.7051  94.3803 15.69922362 11361,6737.256,91.724,361.136,357.106,0.0
56798.0,STARLINK-6068,PAYLOAD,2023-08-10 11:22:50,15.69913854,0.0002036,69.9986,213.1127,291.2677,68.8301,-7.405e-06,-1.102e-05,0.0,0 STARLINK-6068,1 56798U 23078AH  23222.47419187 -.00001102  00000-0 -74050-5 0  9994,2 56798  69.9986 213.1127 0002036 291.2677  68.8301 15.69913854 11487,6737.28,91.725,360.517,357.774,0.0
56798.0,STARLINK-6068,PAYLOAD,2023-08-11 08:47:20,15.69930962,0.0003442,69.9967,210.6047,264.5897,95.4906,1.9511e-05,2.134e-05,0.0,0 STARLINK-6068,1 56798U 23078AH  23223.36621237  .00002134  00000-0  19511-4 0  9998,2 56798  69.9967 210.6047 0003442 264.5897  95.4906 15.69930962 11620,6737.232,91.724,361.415,356.778,0.0
56798.0,STARLINK-6068,PAYLOAD,2023-08-12 01:36:37,15.69921212,0.0003539,69.9992,208.6323,265.1383,94.9408,-5.8351e-07,-2.83e-06,0.0,0 STARLINK-6068,1 56798U 23078AH  23224.06709889 -.00000283  00000-0 -58351-6 0  9998,2 56798  69.9992 208.6323 0003539 265.1383  94.9408 15.69921212 11737,6737.259,91.724,361.509,356.74,0.0
56798.0,STARLINK-6068,PAYLOAD,2023-08-13 05:08:09,15.69928862,0.0003127,69.9979,205.409,265.893,94.1909,4.9776e-06,3.86e-06,0.0,0 STARLINK-6068,1 56798U 23078AH  23225.21399813  .00000386  00000-0  49776-5 0  9990,2 56798  69.9979 205.4090 0003127 265.8930  94.1909 15.69928862 11912,6737.238,91.724,361.209,356.996,0.0
56798.0,STARLINK-6068,PAYLOAD,2023-08-14 01:00:56,15.69922588,0.0003548,69.9984,203.0796,265.6874,94.3916,1.5537e-05,1.656e-05,0.0,0 STARLINK-6068,1 56798U 23078AH  23226.04231755  .00001656  00000-0  15537-4 0  9990,2 56798  69.9984 203.0796 0003548 265.6874  94.3916 15.69922588 12041,6737.255,91.724,361.511,356.73,0.0
56798.0,STARLINK-6068,PAYLOAD,2023-08-14 23:57:12,15.69929039,0.0003055,69.9967,200.3924,275.4522,84.6325,3.1141e-05,3.534e-05,0.0,0 STARLINK-6068,1 56798U 23078AH  23226.99806258  .00003534  00000-0  31141-4 0  9996,2 56798  69.9967 200.3924 0003055 275.4522  84.6325 15.69929039 12197,6737.237,91.724,361.16,357.044,0.0
56798.0,STARLINK-6068,PAYLOAD,2023-08-15 07:35:59,15.69912602,0.0003322,69.9976,199.498,268.0853,91.9962,8.4689e-07,-1.11e-06,0.0,0 STARLINK-6068,1 56798U 23078AH  23227.31666361 -.00000111  00000-0  84689-6 0  9998,2 56798  69.9976 199.4980 0003322 268.0853  91.9962 15.69912602 12241,6737.284,91.725,361.387,356.911,0.0
56798.0,STARLINK-6068,PAYLOAD,2023-08-15 15:14:44,15.69925714,0.0003363,69.9974,198.602,267.9558,92.1253,1.6601e-05,1.784e-05,0.0,0 STARLINK-6068,1 56798U 23078AH  23227.63523773  .00001784  00000-0  16601-4 0  9995,2 56798  69.9974 198.6020 0003363 267.9558  92.1253 15.69925714 12299,6737.247,91.724,361.377,356.846,0.0
56798.0,STARLINK-6068,PAYLOAD,2023-08-16 09:35:46,15.69913737,0.0003489,69.9988,196.4508,268.9488,91.1308,-1.8492e-05,-2.435e-05,0.0,0 STARLINK-6068,1 56798U 23078AH  23228.39984066 -.00002435  00000-0 -18492-4 0  9991,2 56798  69.9988 196.4508 0003489 268.9488  91.1308 15.69913737 12419,6737.281,91.725,361.496,356.795,0.0
56798.0,STARLINK-6068,PAYLOAD,2023-08-16 21:49:46,15.69925214,0.0003845,69.9978,195.0177,262.803,97.2729,-1.3196e-05,-1.8e-05,0.0,0 STARLINK-6068,1 56798U 23078AH  23228.90956829 -.00001800  00000-0 -13196-4 0  9995,2 56798  69.9978 195.0177 0003845 262.8030  97.2729 15.69925214 12492,6737.248,91.724,361.703,356.522,0.0
56798.0,STARLINK-6068,PAYLOAD,2023-08-17 07:00:17,15.69937622,0.0003559,69.9987,193.9436,269.5703,90.5085,4.0225e-05,4.629e-05,0.0,0 STARLINK-6068,1 56798U 23078AH  23229.29186536  .00004629  00000-0  40225-4 0  9991,2 56798  69.9987 193.9436 0003559 269.5703  90.5085 15.69937622 12554,6737.212,91.723,361.475,356.68,0.0
56798.0,STARLINK-6068,PAYLOAD,2023-08-17 23:49:33,15.69926118,0.0003325,69.9994,191.9727,268.0071,92.0744,6.595e-06,5.8e-06,0.0,0 STARLINK-6068,1 56798U 23078AH  23229.99275172  .00000580  00000-0  65950-5 0  9998,2 56798  69.9994 191.9727 0003325 268.0071  92.0744 15.69926118 12665,6737.245,91.724,361.351,356.87,0.0
56798.0,STARLINK-6068,PAYLOAD,2023-08-19 00:17:35,15.69924974,0.0003619,69.9993,189.1086,272.7907,87.2875,1.2765e-05,1.322e-05,0.0,0 STARLINK-6068,1 56798U 23078AH  23231.01221980  .00001322  00000-0  12765-4 0  9992,2 56798  69.9993 189.1086 0003619 272.7907  87.2875 15.69924974 12824,6737.249,91.724,361.552,356.675,0.0
56798.0,STARLINK-6068,PAYLOAD,2023-08-19 06:24:36,15.69916033,0.0003391,69.9991,188.3906,267.2,92.8808,-1.0255e-05,-1.445e-05,0.0,0 STARLINK-6068,1 56798U 23078AH  23231.26709297 -.00001445  00000-0 -10255-4 0  9991,2 56798  69.9991 188.3906 0003391 267.2000  92.8808 15.69916033 12863,6737.274,91.725,361.424,356.855,0.0
56798.0,STARLINK-6068,PAYLOAD,2023-08-20 00:45:38,15.6993019,0.0002559,70.0011,186.2432,250.0813,110.0107,5.5397e-05,6.455e-05,0.0,0 STARLINK-6068,1 56798U 23078AH  23232.03169101  .00006455  00000-0  55397-4 0  9991,2 56798  70.0011 186.2432 0002559 250.0813 110.0107 15.69930190 12985,6737.234,91.724,360.823,357.375,0.0
56798.0,STARLINK-6068,PAYLOAD,2023-08-20 08:24:24,15.69924664,0.0003144,69.9996,185.3457,267.6188,92.4648,3.2478e-05,3.694e-05,0.0,0 STARLINK-6068,1 56798U 23078AH  23232.35027790  .00003694  00000-0  32478-4 0  9990,2 56798  69.9996 185.3457 0003144 267.6188  92.4648 15.69924664 13030,6737.25,91.724,361.233,356.996,0.0
